CCSDS_OMM_VERS = 2.0
CREATION_DATE  = 
ORIGINATOR     = 

OBJECT_NAME    = STARLINK-36503
OBJECT_ID      = 2026-005H
CENTER_NAME    = EARTH
REF_FRAME      = TEME
TIME_SYSTEM    = UTC
MEAN_ELEMENT_THEORY = SGP/SGP4

EPOCH          = 2026-02-10T00:29:30.429312
MEAN_MOTION    = 15.50621528
ECCENTRICITY   = .0001725
INCLINATION    = 43.0013
RA_OF_ASC_NODE = 36.0820
ARG_OF_PERICENTER = 277.8057
MEAN_ANOMALY   = 82.2607

EPHEMERIS_TYPE = 0
CLASSIFICATION_TYPE = U
NORAD_CAT_ID   = 67411
ELEMENT_SET_NO = 999
REV_AT_EPOCH   = 444
BSTAR          = .119E-2
MEAN_MOTION_DOT = .70206E-3
MEAN_MOTION_DDOT = 0

CCSDS_OMM_VERS = 2.0
CREATION_DATE  = 
ORIGINATOR     = 

OBJECT_NAME    = STARLINK-36446
OBJECT_ID      = 2026-005J
CENTER_NAME    = EARTH
REF_FRAME      = TEME
TIME_SYSTEM    = UTC
MEAN_ELEMENT_THEORY = SGP/SGP4

EPOCH          = 2026-02-10T04:00:01.999584
MEAN_MOTION    = 15.40676001
ECCENTRICITY   = .0000903
INCLINATION    = 43.0011
RA_OF_ASC_NODE = 35.5777
ARG_OF_PERICENTER = 256.5116
MEAN_ANOMALY   = 55.8305

EPHEMERIS_TYPE = 0
CLASSIFICATION_TYPE = U
NORAD_CAT_ID   = 67412
ELEMENT_SET_NO = 999
REV_AT_EPOCH   = 576
BSTAR          = .37996E-3
MEAN_MOTION_DOT = .15588E-3
MEAN_MOTION_DDOT = 0

CCSDS_OMM_VERS = 2.0
CREATION_DATE  = 
ORIGINATOR     = 

OBJECT_NAME    = STARLINK-36442
OBJECT_ID      = 2026-005K
CENTER_NAME    = EARTH
REF_FRAME      = TEME
TIME_SYSTEM    = UTC
MEAN_ELEMENT_THEORY = SGP/SGP4

EPOCH          = 2026-02-10T04:00:01.999584
MEAN_MOTION    = 15.40677769
ECCENTRICITY   = .0001461
INCLINATION    = 43.0009
RA_OF_ASC_NODE = 35.4554
ARG_OF_PERICENTER = 255.5486
MEAN_ANOMALY   = 106.5585

EPHEMERIS_TYPE = 0
CLASSIFICATION_TYPE = U
NORAD_CAT_ID   = 67413
ELEMENT_SET_NO = 999
REV_AT_EPOCH   = 576
BSTAR          = .31563E-3
MEAN_MOTION_DOT = .12893E-3
MEAN_MOTION_DDOT = 0

CCSDS_OMM_VERS = 2.0
CREATION_DATE  = 
ORIGINATOR     = 

OBJECT_NAME    = STARLINK-36506
OBJECT_ID      = 2026-005L
CENTER_NAME    = EARTH
REF_FRAME      = TEME
TIME_SYSTEM    = UTC
MEAN_ELEMENT_THEORY = SGP/SGP4

EPOCH          = 2026-02-09T07:27:41.203584
MEAN_MOTION    = 15.50606894
ECCENTRICITY   = .00016604
INCLINATION    = 43.0011
RA_OF_ASC_NODE = 40.2115
ARG_OF_PERICENTER = 234.2328
MEAN_ANOMALY   = 125.8378

EPHEMERIS_TYPE = 0
CLASSIFICATION_TYPE = U
NORAD_CAT_ID   = 67414
ELEMENT_SET_NO = 999
REV_AT_EPOCH   = 433
BSTAR          = .16611166E-2
MEAN_MOTION_DOT = .9844E-3
MEAN_MOTION_DDOT = 0

CCSDS_OMM_VERS = 2.0
CREATION_DATE  = 
ORIGINATOR     = 

OBJECT_NAME    = STARLINK-36468
OBJECT_ID      = 2026-005M
CENTER_NAME    = EARTH
REF_FRAME      = TEME
TIME_SYSTEM    = UTC
MEAN_ELEMENT_THEORY = SGP/SGP4

EPOCH          = 2026-02-10T04:00:01.999584
MEAN_MOTION    = 15.40675277
ECCENTRICITY   = .0001161
INCLINATION    = 43.0005
RA_OF_ASC_NODE = 35.3348
ARG_OF_PERICENTER = 268.1687
MEAN_ANOMALY   = 143.7034

EPHEMERIS_TYPE = 0
CLASSIFICATION_TYPE = U
NORAD_CAT_ID   = 67415
ELEMENT_SET_NO = 999
REV_AT_EPOCH   = 571
BSTAR          = .33775E-3
MEAN_MOTION_DOT = .13819E-3
MEAN_MOTION_DDOT = 0

CCSDS_OMM_VERS = 2.0
CREATION_DATE  = 
ORIGINATOR     = 

OBJECT_NAME    = STARLINK-36487
OBJECT_ID      = 2026-005N
CENTER_NAME    = EARTH
REF_FRAME      = TEME
TIME_SYSTEM    = UTC
MEAN_ELEMENT_THEORY = SGP/SGP4

EPOCH          = 2026-02-09T23:45:14.966784
MEAN_MOTION    = 15.40736152
ECCENTRICITY   = .0001149
INCLINATION    = 42.9992
RA_OF_ASC_NODE = 36.7127
ARG_OF_PERICENTER = 236.4783
MEAN_ANOMALY   = 123.5964

EPHEMERIS_TYPE = 0
CLASSIFICATION_TYPE = U
NORAD_CAT_ID   = 67416
ELEMENT_SET_NO = 999
REV_AT_EPOCH   = 443
BSTAR          = .10493E-2
MEAN_MOTION_DOT = .43833E-3
MEAN_MOTION_DDOT = 0

CCSDS_OMM_VERS = 2.0
CREATION_DATE  = 
ORIGINATOR     = 

OBJECT_NAME    = STARLINK-36374
OBJECT_ID      = 2026-005P
CENTER_NAME    = EARTH
REF_FRAME      = TEME
TIME_SYSTEM    = UTC
MEAN_ELEMENT_THEORY = SGP/SGP4

EPOCH          = 2026-02-09T01:15:16.223904
MEAN_MOTION    = 15.50144945
ECCENTRICITY   = .00018583
INCLINATION    = 43.0012
RA_OF_ASC_NODE = 41.7113
ARG_OF_PERICENTER = 267.0150
MEAN_ANOMALY   = 93.0497

EPHEMERIS_TYPE = 0
CLASSIFICATION_TYPE = U
NORAD_CAT_ID   = 67417
ELEMENT_SET_NO = 999
REV_AT_EPOCH   = 429
BSTAR          = -.34143226E-2
MEAN_MOTION_DOT = -.192801E-2
MEAN_MOTION_DDOT = 0

CCSDS_OMM_VERS = 2.0
CREATION_DATE  = 
ORIGINATOR     = 

OBJECT_NAME    = STARLINK-36455
OBJECT_ID      = 2026-005Q
CENTER_NAME    = EARTH
REF_FRAME      = TEME
TIME_SYSTEM    = UTC
MEAN_ELEMENT_THEORY = SGP/SGP4

EPOCH          = 2026-02-10T01:59:30.988320
MEAN_MOTION    = 15.48529358
ECCENTRICITY   = .0001701
INCLINATION    = 43.0005
RA_OF_ASC_NODE = 35.6869
ARG_OF_PERICENTER = 277.7353
MEAN_ANOMALY   = 82.3314

EPHEMERIS_TYPE = 0
CLASSIFICATION_TYPE = U
NORAD_CAT_ID   = 67418
ELEMENT_SET_NO = 999
REV_AT_EPOCH   = 445
BSTAR          = -.90508E-2
MEAN_MOTION_DOT = -.465787E-2
MEAN_MOTION_DDOT = 0

CCSDS_OMM_VERS = 2.0
CREATION_DATE  = 
ORIGINATOR     = 

OBJECT_NAME    = STARLINK-36424
OBJECT_ID      = 2026-005R
CENTER_NAME    = EARTH
REF_FRAME      = TEME
TIME_SYSTEM    = UTC
MEAN_ELEMENT_THEORY = SGP/SGP4

EPOCH          = 2026-02-10T04:00:01.999584
MEAN_MOTION    = 15.40681259
ECCENTRICITY   = .0001441
INCLINATION    = 43.0011
RA_OF_ASC_NODE = 35.4853
ARG_OF_PERICENTER = 257.6289
MEAN_ANOMALY   = 92.0366

EPHEMERIS_TYPE = 0
CLASSIFICATION_TYPE = U
NORAD_CAT_ID   = 67419
ELEMENT_SET_NO = 999
REV_AT_EPOCH   = 576
BSTAR          = .29266E-3
MEAN_MOTION_DOT = .11933E-3
MEAN_MOTION_DDOT = 0

CCSDS_OMM_VERS = 2.0
CREATION_DATE  = 
ORIGINATOR     = 

OBJECT_NAME    = STARLINK-35564
OBJECT_ID      = 2026-005S
CENTER_NAME    = EARTH
REF_FRAME      = TEME
TIME_SYSTEM    = UTC
MEAN_ELEMENT_THEORY = SGP/SGP4

EPOCH          = 2026-02-10T00:25:03.643392
MEAN_MOTION    = 15.50651881
ECCENTRICITY   = .0001396
INCLINATION    = 43.0001
RA_OF_ASC_NODE = 36.0531
ARG_OF_PERICENTER = 242.7786
MEAN_ANOMALY   = 117.2932

EPHEMERIS_TYPE = 0
CLASSIFICATION_TYPE = U
NORAD_CAT_ID   = 67420
ELEMENT_SET_NO = 999
REV_AT_EPOCH   = 444
BSTAR          = .21245E-2
MEAN_MOTION_DOT = .126655E-2
MEAN_MOTION_DDOT = 0

CCSDS_OMM_VERS = 2.0
CREATION_DATE  = 
ORIGINATOR     = 

OBJECT_NAME    = STARLINK-36431
OBJECT_ID      = 2026-005T
CENTER_NAME    = EARTH
REF_FRAME      = TEME
TIME_SYSTEM    = UTC
MEAN_ELEMENT_THEORY = SGP/SGP4

EPOCH          = 2026-02-09T23:48:28.579680
MEAN_MOTION    = 15.40729187
ECCENTRICITY   = .0000928
INCLINATION    = 43.0005
RA_OF_ASC_NODE = 36.7317
ARG_OF_PERICENTER = 271.3695
MEAN_ANOMALY   = 88.7055

EPHEMERIS_TYPE = 0
CLASSIFICATION_TYPE = U
NORAD_CAT_ID   = 67421
ELEMENT_SET_NO = 999
REV_AT_EPOCH   = 443
BSTAR          = .73555E-3
MEAN_MOTION_DOT = .30575E-3
MEAN_MOTION_DDOT = 0

CCSDS_OMM_VERS = 2.0
CREATION_DATE  = 
ORIGINATOR     = 

OBJECT_NAME    = STARLINK-36418
OBJECT_ID      = 2026-005U
CENTER_NAME    = EARTH
REF_FRAME      = TEME
TIME_SYSTEM    = UTC
MEAN_ELEMENT_THEORY = SGP/SGP4

EPOCH          = 2026-02-10T04:00:01.999584
MEAN_MOTION    = 15.40678134
ECCENTRICITY   = .0000847
INCLINATION    = 43.0010
RA_OF_ASC_NODE = 35.4245
ARG_OF_PERICENTER = 247.8204
MEAN_ANOMALY   = 126.7236

EPHEMERIS_TYPE = 0
CLASSIFICATION_TYPE = U
NORAD_CAT_ID   = 67422
ELEMENT_SET_NO = 999
REV_AT_EPOCH   = 571
BSTAR          = .31757E-3
MEAN_MOTION_DOT = .12975E-3
MEAN_MOTION_DDOT = 0

