STARLINK-36503          
1 67411U 26005H   26041.02049108  .00070206  00000+0  11900-2 0  9996
2 67411  43.0013  36.0820 0001725 277.8057  82.2607 15.50621528  4444
STARLINK-36446          
1 67412U 26005J   26041.16668981  .00015588  00000+0  37996-3 0  9994
2 67412  43.0011  35.5777 0000903 256.5116  55.8305 15.40676001  5767
STARLINK-36442          
1 67413U 26005K   26041.16668981  .00012893  00000+0  31563-3 0  9995
2 67413  43.0009  35.4554 0001461 255.5486 106.5585 15.40677769  5762
STARLINK-36506          
1 67414U 26005L   26040.31089356  .00098440  00000+0  16611-2 0  9993
2 67414  43.0011  40.2115 0001660 234.2328 125.8378 15.50606894  4331
STARLINK-36468          
1 67415U 26005M   26041.16668981  .00013819  00000+0  33775-3 0  9993
2 67415  43.0005  35.3348 0001161 268.1687 143.7034 15.40675277  5719
STARLINK-36487          
1 67416U 26005N   26040.98975656  .00043833  00000+0  10493-2 0  9993
2 67416  42.9992  36.7127 0001149 236.4783 123.5964 15.40736152  4430
STARLINK-36374          
1 67417U 26005P   26040.05227111 -.00192801  00000+0 -34143-2 0  9998
2 67417  43.0012  41.7113 0001858 267.0150  93.0497 15.50144945  4292
STARLINK-36455          
1 67418U 26005Q   26041.08299755 -.00465787  00000+0 -90508-2 0  9999
2 67418  43.0005  35.6869 0001701 277.7353  82.3314 15.48529358  4454
STARLINK-36424          
1 67419U 26005R   26041.16668981  .00011933  00000+0  29266-3 0  9992
2 67419  43.0011  35.4853 0001441 257.6289  92.0366 15.40681259  5760
STARLINK-35564          
1 67420U 26005S   26041.01740328  .00126655  00000+0  21245-2 0  9990
2 67420  43.0001  36.0531 0001396 242.7786 117.2932 15.50651881  4449
STARLINK-36431          
1 67421U 26005T   26040.99199745  .00030575  00000+0  73555-3 0  9995
2 67421  43.0005  36.7317 0000928 271.3695  88.7055 15.40729187  4431
STARLINK-36418          
1 67422U 26005U   26041.16668981  .00012975  00000+0  31757-3 0  9991
2 67422  43.0010  35.4245 0000847 247.8204 126.7236 15.40678134  5719
